[{"OBJECT_NAME":"STARLINK-31511","OBJECT_ID":"2024-068H","EPOCH":"2026-03-09T07:34:28.879392","MEAN_MOTION":15.27576819,"ECCENTRICITY":0.00013745,"INCLINATION":43.0023,"RA_OF_ASC_NODE":36.79,"ARG_OF_PERICENTER":254.748,"MEAN_ANOMALY":105.322,"EPHEMERIS_TYPE":0,"CLASSIFICATION_TYPE":"U","NORAD_CAT_ID":59462,"ELEMENT_SET_NO":999,"REV_AT_EPOCH":10846,"BSTAR":-5.07593e-6,"MEAN_MOTION_DOT":-4.02e-6,"MEAN_MOTION_DDOT":0},{"OBJECT_NAME":"OKEAN-1","OBJECT_ID":"1988-056A","EPOCH":"2026-03-09T21:19:04.260000","MEAN_MOTION":15.31672069,"ECCENTRICITY":0.00129431,"INCLINATION":82.4671,"RA_OF_ASC_NODE":262.7586,"ARG_OF_PERICENTER":168.0696,"MEAN_ANOMALY":192.0855,"EPHEMERIS_TYPE":0,"CLASSIFICATION_TYPE":"U","NORAD_CAT_ID":19274,"ELEMENT_SET_NO":999,"REV_AT_EPOCH":3511,"BSTAR":0.00038371192,"MEAN_MOTION_DOT":0.00011798,"MEAN_MOTION_DDOT":0}]
